OBJECT_NAME,OBJECT_ID,EPOCH,MEAN_MOTION,ECCENTRICITY,INCLINATION,RA_OF_ASC_NODE,ARG_OF_PERICENTER,MEAN_ANOMALY,EPHEMERIS_TYPE,CLASSIFICATION_TYPE,NORAD_CAT_ID,ELEMENT_SET_NO,REV_AT_EPOCH,BSTAR,MEAN_MOTION_DOT,MEAN_MOTION_DDOT
INTELSAT 902 (IS-902),2001-039A,2026-06-30T12:07:35.676192,1.00270084,.00042105,6.1497,71.6208,28.0626,310.6671,0,U,26900,999,9082,0,-.277E-5,0
INTELSAT 904 (IS-904),2002-007A,2026-07-01T00:11:27.958272,1.00271966,.0006383,6.9525,69.0196,14.6489,166.7873,0,U,27380,999,5190,0,-.22E-5,0
DIRECTV 5 (TEMPO 1),2002-023A,2026-07-01T04:21:38.562048,1.00271759,.0003553,4.9116,75.1401,32.5313,126.8727,0,U,27426,999,8826,0,-.5E-6,0
INTELSAT 905 (IS-905),2002-027A,2026-06-30T18:33:28.279872,1.00271993,.00040488,6.7857,69.6375,31.2679,319.0932,0,U,27438,999,5149,0,.99E-6,0
GALAXY 3C (G-3C),2002-030A,2026-06-30T14:17:13.664256,1.00272227,.00019709,3.7656,77.8074,27.2183,293.1133,0,U,27445,999,4662,0,-.145E-5,0
INTELSAT 906 (IS-906),2002-041A,2026-07-01T04:04:08.454720,1.00273045,.0004125,5.8372,72.7492,11.5719,320.0914,0,U,27513,999,8716,0,.19E-6,0
GALAXY 13 (HORIZONS-1),2003-044A,2026-07-01T04:38:14.752320,1.00271648,.000169,1.4547,83.6861,11.6082,103.4882,0,U,27954,999,4671,0,.142E-5,0
INTELSAT 10-02,2004-022A,2026-06-30T22:37:32.303136,1.00272440,.0000244,0.0358,272.5237,243.8402,101.0248,0,U,28358,999,8069,0,0,0
DIRECTV 8,2005-019A,2026-07-01T04:03:38.765088,1.00270632,.0003357,0.0197,17.9624,91.3936,111.7395,0,U,28659,999,7721,0,0,0
GALAXY 28 (G-28),2005-022A,2026-07-01T02:46:29.123040,1.00270724,.0002584,3.3329,78.7684,14.8910,200.0371,0,U,28702,999,5211,0,-.192E-5,0
GALAXY 16 (G-16),2006-023A,2026-07-01T04:01:09.136704,1.00273038,.0002736,0.0090,97.7640,357.0254,145.7274,0,U,29236,999,7311,0,-.117E-5,0
DIRECTV 9S,2006-043A,2026-07-01T03:55:36.298848,1.00271753,.0005423,2.4550,80.7446,22.5816,133.5963,0,U,29494,999,5152,0,-.105E-5,0
GALAXY 17 (G-17),2007-016B,2026-07-01T03:21:35.714016,1.00271663,.0004058,3.0052,79.7325,18.9717,145.8835,0,U,31307,999,6994,0,-.198E-5,0
INTELSAT 11 (IS-11),2007-044B,2026-07-01T04:04:08.454720,0.99047802,.0003373,3.5999,78.5074,87.3032,238.7462,0,U,32253,999,6858,0,.91E-6,0
HORIZONS-2,2007-063B,2026-07-01T04:39:52.925184,1.00269817,.0004106,2.6363,80.4626,11.3403,183.5985,0,U,32388,999,6795,0,-.245E-5,0
DIRECTV 11,2008-013A,2026-06-30T14:20:21.870240,1.00269308,.00003472,0.0118,261.6721,164.8959,328.0030,0,U,32729,999,4572,0,-.115E-5,0
GALAXY 18 (G-18),2008-024A,2026-07-01T05:03:38.627136,1.00271897,.0003209,0.0180,36.4655,67.8676,127.8427,0,U,32951,999,4599,0,.36E-6,0
GALAXY 19 (G-19),2008-045A,2026-07-01T04:25:28.481952,1.00271803,.000294,0.0529,253.4083,220.5426,134.6562,0,U,33376,999,6504,0,-.129E-5,0
FM-5,2009-034A,2026-07-01T04:55:38.682048,1.00270133,.0000838,0.0342,278.8768,69.6332,278.4975,0,U,35493,999,4678,0,-.189E-5,0
INTELSAT 14 (IS-14),2009-064A,2026-07-01T03:32:56.445792,1.00270230,.0002747,0.0263,290.8092,171.6366,184.9927,0,U,36097,999,6074,0,-.263E-5,0
INTELSAT 15 (IS-15),2009-067A,2026-07-01T00:44:50.045856,1.00268951,.0002677,0.0123,318.0060,145.5028,271.9187,0,U,36106,999,4136,0,-.174E-5,0
DIRECTV 12,2009-075A,2026-06-30T14:21:22.644000,1.00273225,.00004902,0.0173,192.7565,284.2288,274.3004,0,U,36131,999,4668,0,-.93E-6,0
INTELSAT 16 (IS-16),2010-006A,2026-07-01T03:24:05.559264,1.00270521,.0002563,0.0106,28.0527,90.7486,135.2161,0,U,36397,999,5979,0,-.234E-5,0
XM-5,2010-053A,2026-07-01T05:03:38.627136,1.00269979,.0002651,0.0685,268.7155,284.8580,46.4033,0,U,37185,999,5762,0,-.12E-6,0
INTELSAT 17 (IS-17),2010-065B,2026-07-01T04:04:38.407008,1.00270395,.0002679,0.0116,114.7446,357.8407,293.7898,0,U,37238,999,5338,0,.9E-7,0
INTELSAT 28 (IS-28),2011-016A,2026-07-01T01:48:51.376032,1.00270400,.0004021,1.8403,82.4631,17.1803,174.9610,0,U,37392,999,5342,0,-.216E-5,0
INTELSAT 18 (IS-18),2011-056A,2026-07-01T02:54:31.507200,1.00269543,.0002084,0.0227,24.9793,82.4550,35.3776,0,U,37834,999,5395,0,0,0
INTELSAT 22 (IS-22),2012-011A,2026-07-01T04:06:23.241312,1.00270541,.0001729,0.0489,67.4144,44.0395,301.4730,0,U,38098,999,732,0,0,0
INTELSAT 19 (IS-19),2012-030A,2026-07-01T04:35:38.596416,1.00271581,.0003408,0.0180,24.0637,84.4354,45.6596,0,U,38356,999,5059,0,-.46E-6,0
INTELSAT 20 (IS-20),2012-043A,2026-06-30T22:29:38.788800,1.00270880,.0002202,0.0436,75.9415,109.6201,139.3398,0,U,38740,999,5088,0,0,0
INTELSAT 21 (IS-21),2012-045A,2026-07-01T00:47:52.831968,1.00273565,.0001918,0.0325,277.5819,191.6392,123.8387,0,U,38749,999,5066,0,-.274E-5,0
